QIANFAN-81              
1 63167U 25046J   25280.27608159  .00000164  00000+0  23547-3 0  9999
2 63167  88.9810 326.7492 0012909 318.5496  41.4675 13.50984752 38517
QIANFAN-82              
1 63168U 25046K   25280.30913417  .00000196  00000+0  28523-3 0  9994
2 63168  88.9810 326.7894 0011283 328.4970  31.5504 13.50972637 38504
QIANFAN-83              
1 63169U 25046L   25280.28438247  .00000205  00000+0  25078-3 0  9998
2 63169  88.9810 326.6987 0012225 315.3138  44.7033 13.61960416 38557
QIANFAN-84              
1 63170U 25046M   25280.33759001  .00000117  00000+0  16252-3 0  9996
2 63170  88.9810 326.9194 0014113 322.7706  37.2466 13.50984833 38434
QIANFAN-85              
1 63171U 25046N   25280.25977926  .00000201  00000+0  29288-3 0  9993
2 63171  88.9809 326.7994 0011592 327.1878  32.8552 13.50969101 38490
QIANFAN-86              
1 63172U 25046P   25280.34207413  .00000157  00000+0  22501-3 0  9992
2 63172  88.9811 326.6516 0009633 333.5080  26.5577 13.50966179 38581
QIANFAN-87              
1 63173U 25046Q   25280.23918029  .00000206  00000+0  30019-3 0  9991
2 63173  88.9807 326.7763 0010170 327.3031  32.7490 13.50979087 38504
QIANFAN-88              
1 63174U 25046R   25280.25566947  .00000186  00000+0  26889-3 0  9999
2 63174  88.9810 326.7275 0010794 336.1242  23.9407 13.50972341 38530
